NORAD_CAT_ID,OBJECT_NAME,OBJECT_TYPE,EPOCH,MEAN_MOTION,ECCENTRICITY,INCLINATION,RA_OF_ASC_NODE,ARG_OF_PERICENTER,MEAN_ANOMALY,BSTAR,MEAN_MOTION_DOT,MEAN_MOTION_DDOT,TLE_LINE0,TLE_LINE1,TLE_LINE2,SEMIMAJOR_AXIS,PERIOD,APOGEE,PERIGEE,DECAYED
49150.0,STARLINK-3104,PAYLOAD,2022-01-20 22:00:00,14.98357626,0.0003628,69.9972,138.6129,285.2965,68.803,-0.0039341,-0.00046758,0.0,0 STARLINK-3104,1 49150U 21082W   22020.91667824 -.00046758  00000-0 -39341-2 0  9995,2 49150  69.9972 138.6129 0003628 285.2965  68.8030 14.98357626  3558,6950.107,96.105,574.494,569.451,0.0
49150.0,STARLINK-3104,PAYLOAD,2022-01-21 14:00:01,14.98339684,0.0003696,69.9975,136.9317,283.6246,65.4614,-0.00029514,-3.614e-05,0.0,0 STARLINK-3104,1 49150U 21082W   22021.58334491 -.00003614  00000-0 -29514-3 0  9996,2 49150  69.9975 136.9317 0003696 283.6246  65.4614 14.98339684  3588,6950.163000000001,96.106,574.597,569.4590000000002,0.0
49150.0,STARLINK-3104,PAYLOAD,2022-01-21 22:00:00,14.98365093,0.0003738,69.9972,136.0911,284.5476,62.024,-0.0041642,-0.00049479,0.0,0 STARLINK-3104,1 49150U 21082W   22021.91667824 -.00049479  00000-0 -41642-2 0  9996,2 49150  69.9972 136.0911 0003738 284.5476  62.0240 14.98365093  3567,6950.084,96.105,574.547,569.351,0.0
49150.0,STARLINK-3104,PAYLOAD,2022-01-22 04:00:00,14.98308097,0.0003718,69.9972,135.4605,280.2858,334.4263,0.0059008,0.00070995,0.0,0 STARLINK-3104,1 49150U 21082W   22022.16667824  .00070995  00000-0  59008-2 0  9994,2 49150  69.9972 135.4605 0003718 280.2858 334.4263 14.98308097 21376,6950.261,96.108,574.71,569.5419999999998,0.0
49150.0,STARLINK-3104,PAYLOAD,2022-01-22 12:00:00,14.98363607,0.0003793,69.9974,134.62,282.0033,330.1977,-0.002585,-0.0003083,0.0,0 STARLINK-3104,1 49150U 21082W   22022.50001157 -.00030830  00000-0 -25850-2 0  9997,2 49150  69.9974 134.6200 0003793 282.0033 330.1977 14.98363607 21427,6950.089,96.105,574.59,569.318,0.0
49150.0,STARLINK-3104,PAYLOAD,2022-01-22 14:00:01,14.98345986,0.0003791,69.9973,134.4099,283.6898,57.8944,0.00014262,1.6100000000000002e-05,0.0,0 STARLINK-3104,1 49150U 21082W   22022.58334491  .00001610  00000-0  14262-3 0  9993,2 49150  69.9973 134.4099 0003791 283.6898  57.8944 14.98345986  3577,6950.143,96.106,574.643,569.374,0.0
49150.0,STARLINK-3104,PAYLOAD,2022-01-22 22:00:00,14.98376226,0.0003785,69.997,133.5692,284.483,54.6008,-0.0041413999999999,-0.00049224,0.0,0 STARLINK-3104,1 49150U 21082W   22022.91667824 -.00049224  00000-0 -41414-2 0  9992,2 49150  69.9970 133.5692 0003785 284.4830  54.6008 14.98376226  3578,6950.05,96.104,574.5459999999998,569.284,0.0
49150.0,STARLINK-3104,PAYLOAD,2022-01-23 04:00:00,14.98331411,0.0003739,69.997,132.9388,280.4517,326.7819,0.0034556999999999,0.00041388,0.0,0 STARLINK-3104,1 49150U 21082W   22023.16667824  .00041388  00000-0  34557-2 0  9991,2 49150  69.9970 132.9388 0003739 280.4517 326.7819 14.98331411 21525,6950.189,96.107,574.6519999999998,569.455,0.0
49150.0,STARLINK-3104,PAYLOAD,2022-01-23 12:00:00,14.9835164,0.0003752,69.9972,132.0982,282.9962,321.7458,-0.0030125,-0.00035877,0.0,0 STARLINK-3104,1 49150U 21082W   22023.50001157 -.00035877  00000-0 -30125-2 0  9995,2 49150  69.9972 132.0982 0003752 282.9962 321.7458 14.98351640 21579,6950.126,96.106,574.599,569.383,0.0
49150.0,STARLINK-3104,PAYLOAD,2022-01-23 14:00:01,14.98327644,0.0003727,69.997,131.8881,284.7453,49.378,0.00072919,8.618e-05,0.0,0 STARLINK-3104,1 49150U 21082W   22023.58334491  .00008618  00000-0  72919-3 0  9992,2 49150  69.9970 131.8881 0003727 284.7453  49.3780 14.98327644  3577,6950.2,96.107,574.656,569.475,0.0
49150.0,STARLINK-3104,PAYLOAD,2022-01-23 22:00:00,14.98360817,0.0003694,69.9967,131.0475,285.1786,46.4238,-0.0042702,-0.00050721,0.0,0 STARLINK-3104,1 49150U 21082W   22023.91667824 -.00050721  00000-0 -42702-2 0  9998,2 49150  69.9967 131.0475 0003694 285.1786  46.4238 14.98360817  3576,6950.098000000001,96.105,574.53,569.395,0.0
49150.0,STARLINK-3104,PAYLOAD,2022-01-24 04:00:00,14.98304005,0.0003664,69.9967,130.417,280.9951,318.7395,0.0054235,0.00065183,0.0,0 STARLINK-3104,1 49150U 21082W   22024.16667824  .00065183  00000-0  54235-2 0  9996,2 49150  69.9967 130.4170 0003664 280.9951 318.7395 14.98304005 21672,6950.273,96.109,574.685,569.592,0.0
49150.0,STARLINK-3104,PAYLOAD,2022-01-24 12:00:00,14.9835101,0.0003753,69.9968,129.5764,283.6449,313.5769,-0.0018143,-0.00021687,0.0,0 STARLINK-3104,1 49150U 21082W   22024.50001157 -.00021687  00000-0 -18143-2 0  9996,2 49150  69.9968 129.5764 0003753 283.6449 313.5769 14.98351010 21724,6950.128000000002,96.106,574.601,569.385,0.0
49150.0,STARLINK-3104,PAYLOAD,2022-01-24 14:00:01,14.98334366,0.0003744,69.9968,129.3662,285.4176,41.1841,0.001021,0.00012112,0.0,0 STARLINK-3104,1 49150U 21082W   22024.58334491  .00012112  00000-0  10210-2 0  9992,2 49150  69.9968 129.3662 0003744 285.4176  41.1841 14.98334366  3568,6950.179,96.107,574.6469999999998,569.442,0.0
49150.0,STARLINK-3104,PAYLOAD,2022-01-24 22:00:00,14.98368311,0.0003698,69.9964,128.5256,285.3808,38.7108,-0.0043936,-0.00052183,0.0,0 STARLINK-3104,1 49150U 21082W   22024.91667824 -.00052183  00000-0 -43936-2 0  9993,2 49150  69.9964 128.5256 0003698 285.3808  38.7108 14.98368311  3568,6950.074000000001,96.105,574.51,569.369,0.0
49150.0,STARLINK-3104,PAYLOAD,2022-01-25 06:00:00,14.98346636,0.0003603,69.9966,127.685,280.9188,40.6783,-0.0013595,-0.00016285,0.0,0 STARLINK-3104,1 49150U 21082W   22025.25001157 -.00016285  00000-0 -13595-2 0  9993,2 49150  69.9966 127.6850 0003603 280.9188  40.6783 14.98346636 21835,6950.141,96.106,574.511,569.502,0.0
49150.0,STARLINK-3104,PAYLOAD,2022-01-25 14:00:01,14.98313448,0.0003652,69.9967,126.8442,285.9840000000001,33.1159,0.0012345999999999,0.00014663,0.0,0 STARLINK-3104,1 49150U 21082W   22025.58334491  .00014663  00000-0  12346-2 0  9998,2 49150  69.9967 126.8442 0003652 285.9840  33.1159 14.98313448  3556,6950.244000000002,96.108,574.6469999999998,569.571,0.0
49150.0,STARLINK-3104,PAYLOAD,2022-01-25 22:00:00,14.98346254,0.0003639,69.9964,126.0036,285.3378,31.2283,-0.0042492,-0.00050455,0.0,0 STARLINK-3104,1 49150U 21082W   22025.91667824 -.00050455  00000-0 -42492-2 0  9990,2 49150  69.9964 126.0036 0003639 285.3378  31.2283 14.98346254  3591,6950.143,96.106,574.5369999999998,569.4780000000002,0.0
49150.0,STARLINK-3104,PAYLOAD,2022-01-26 04:00:00,14.98241185,0.0003716,69.9983,125.3749,283.839,300.8632,0.0040543,0.00048509,0.0,0 STARLINK-3104,1 49150U 21082W   22026.16667824  .00048509  00000-0  40543-2 0  9998,2 49150  69.9983 125.3749 0003716 283.8390 300.8632 14.98241185 21970,6950.468000000003,96.113,574.915,569.75,0.0
49150.0,STARLINK-3104,PAYLOAD,2022-01-26 12:00:00,14.98338615,0.0003724,69.9968,124.5324,283.6348,298.5326,-0.0012423,-0.00014889,0.0,0 STARLINK-3104,1 49150U 21082W   22026.50001157 -.00014889  00000-0 -12423-2 0  9999,2 49150  69.9968 124.5324 0003724 283.6348 298.5326 14.98338615 22028,6950.166,96.106,574.619,569.443,0.0
49150.0,STARLINK-3104,PAYLOAD,2022-01-26 14:00:01,14.98324145,0.0003727,69.9968,124.3223,285.2773,26.2662,0.001416,0.00016841,0.0,0 STARLINK-3104,1 49150U 21082W   22026.58334491  .00016841  00000-0  14160-2 0  9995,2 49150  69.9968 124.3223 0003727 285.2773  26.2662 14.98324145  3578,6950.2109999999975,96.107,574.6659999999998,569.486,0.0
49150.0,STARLINK-3104,PAYLOAD,2022-01-26 22:00:00,14.98358579,0.0003741,69.9965,123.4816,284.2847,24.7429,-0.0039536,-0.0004699,0.0,0 STARLINK-3104,1 49150U 21082W   22026.91667824 -.00046990  00000-0 -39536-2 0  9995,2 49150  69.9965 123.4816 0003741 284.2847  24.7429 14.98358579  3561,6950.105,96.105,574.57,569.369,0.0
49150.0,STARLINK-3104,PAYLOAD,2022-01-27 04:00:00,14.98320023,0.0003695,69.9967,122.8512,280.3626,296.7943,0.0038552,0.00046201,0.0,0 STARLINK-3104,1 49150U 21082W   22027.16667824  .00046201  00000-0  38552-2 0  9993,2 49150  69.9967 122.8512 0003695 280.3626 296.7943 14.98320023 22127,6950.224,96.108,574.6569999999998,569.521,0.0
49150.0,STARLINK-3104,PAYLOAD,2022-01-27 12:38:50,14.98343137,0.0003694,69.9956,121.9428,282.4938,77.5808,-8.9684e-06,-2e-06,0.0,0 STARLINK-3104,1 49150U 21082W   22027.52697505 -.00000200  00000-0 -89684-5 0  9998,2 49150  69.9956 121.9428 0003694 282.4938  77.5808 14.98343137 22169,6950.151999999999,96.106,574.585,569.45,0.0
49150.0,STARLINK-3104,PAYLOAD,2022-01-27 15:51:07,14.9833337,0.0003396,69.9965,121.6033,279.9019,80.1757,-0.00019035,-2.364e-05,0.0,0 STARLINK-3104,1 49150U 21082W   22027.66050451 -.00002364  00000-0 -19035-3 0  9990,2 49150  69.9965 121.6033 0003396 279.9019  80.1757 14.98333370 22192,6950.182,96.107,574.408,569.687,0.0
49150.0,STARLINK-3104,PAYLOAD,2022-01-27 22:00:00,14.98339834,0.0003736,69.9969,120.9597,284.0308,17.4653,-0.0037389,-0.00044438,0.0,0 STARLINK-3104,1 49150U 21082W   22027.91667824 -.00044438  00000-0 -37389-2 0  9995,2 49150  69.9969 120.9597 0003736 284.0308  17.4653 14.98339834  3557,6950.1619999999975,96.106,574.624,569.431,0.0
49150.0,STARLINK-3104,PAYLOAD,2022-01-28 12:00:00,14.983279800000002,0.0003814,69.9974,119.4889,283.5556,283.5252,-0.00068589,-8.268e-05,0.0,0 STARLINK-3104,1 49150U 21082W   22028.50001157 -.00008268  00000-0 -68589-3 0  9990,2 49150  69.9974 119.4889 0003814 283.5556 283.5252 14.98327980  3556,6950.199000000001,96.107,574.715,569.413,0.0
49150.0,STARLINK-3104,PAYLOAD,2022-01-28 20:00:01,14.98313253,0.0003853,69.9987,118.6503,283.6833,280.8793,-0.007633,-0.00089978,0.0,0 STARLINK-3104,1 49150U 21082W   22028.83334491 -.00089978  00000-0 -76330-2 0  9995,2 49150  69.9987 118.6503 0003853 283.6833 280.8793 14.98313253 22375,6950.245,96.108,574.788,569.432,0.0
49150.0,STARLINK-3104,PAYLOAD,2022-01-28 22:00:00,14.98218418,0.0003785,69.9994,118.4405,283.2496,10.6993,0.0082753,0.00099781,0.0,0 STARLINK-3104,1 49150U 21082W   22028.91667824  .00099781  00000-0  82753-2 0  9990,2 49150  69.9994 118.4405 0003785 283.2496  10.6993 14.98218418  3565,6950.538000000001,96.114,575.034,569.7719999999998,0.0
